ACS3                    
1 59588U 24077B   24133.47353697  .00000221  00000+0  29475-3 0  9996
2 59588  97.4068 209.9469 0020171 188.3942 171.6875 13.67677141  2523
